FLOCK 4H-34             
1 66737U 25276BZ  26201.74397467  .00004286  00000+0  19707-3 0  9995
2 66737  97.4221 275.0742 0003088 155.9559 204.1822 15.20882013 34782
FLOCK 4H-35             
1 66738U 25276CA  26201.19299301  .00003354  00000+0  15443-3 0  9991
2 66738  97.4179 274.4676 0002961 142.0206 218.1239 15.20990385 34744
FLOCK 4H-36             
1 66739U 25276CB  26201.75869635  .00004277  00000+0  19736-3 0  9991
2 66739  97.4227 275.0811 0003147 168.4191 191.7118 15.20761557 35536
