{"fetched_at":"2026-07-21T07:06:30.167Z","source":"https://celestrak.org/NORAD/elements/gp.php?GROUP=planet&FORMAT=JSON","constellation":"superdove","records":[{"OBJECT_NAME":"FLOCK 4H-34","OBJECT_ID":"2025-276BZ","EPOCH":"2026-07-20T17:51:19.411488","CLASSIFICATION_TYPE":"U","MEAN_MOTION":15.20882013,"ECCENTRICITY":0.00030887,"INCLINATION":97.4221,"RA_OF_ASC_NODE":275.0742,"ARG_OF_PERICENTER":155.9559,"MEAN_ANOMALY":204.1822,"EPHEMERIS_TYPE":0,"NORAD_CAT_ID":66737,"ELEMENT_SET_NO":999,"REV_AT_EPOCH":3478,"BSTAR":0.00019707091,"MEAN_MOTION_DOT":0.00004286,"MEAN_MOTION_DDOT":0},{"OBJECT_NAME":"FLOCK 4H-35","OBJECT_ID":"2025-276CA","EPOCH":"2026-07-20T04:37:54.596064","CLASSIFICATION_TYPE":"U","MEAN_MOTION":15.20990385,"ECCENTRICITY":0.00029616,"INCLINATION":97.4179,"RA_OF_ASC_NODE":274.4676,"ARG_OF_PERICENTER":142.0206,"MEAN_ANOMALY":218.1239,"EPHEMERIS_TYPE":0,"NORAD_CAT_ID":66738,"ELEMENT_SET_NO":999,"REV_AT_EPOCH":3474,"BSTAR":0.00015443222,"MEAN_MOTION_DOT":0.00003354,"MEAN_MOTION_DDOT":0},{"OBJECT_NAME":"FLOCK 4H-36","OBJECT_ID":"2025-276CB","EPOCH":"2026-07-20T18:12:31.364640","CLASSIFICATION_TYPE":"U","MEAN_MOTION":15.20761557,"ECCENTRICITY":0.00031471,"INCLINATION":97.4227,"RA_OF_ASC_NODE":275.0811,"ARG_OF_PERICENTER":168.4191,"MEAN_ANOMALY":191.7118,"EPHEMERIS_TYPE":0,"NORAD_CAT_ID":66739,"ELEMENT_SET_NO":999,"REV_AT_EPOCH":3553,"BSTAR":0.00019736,"MEAN_MOTION_DOT":0.00004277,"MEAN_MOTION_DDOT":0}]}
